2025-155V               
1 64895U 25155V   26068.85787115  .00013705  00000+0  51002-3 0  9990
2 64895  97.4485  37.2490 0008035 152.8264 207.3397 15.27583301 65579
STARLINK-36508          
1 67410U 26005G   26068.76460565  .00034276  00000+0  12482-2 0  9992
2 67410  43.0018 237.9375 0002946 282.2963  77.7559 15.27606918  8705
